{
"type": "FeatureCollection",
"name": "carte_regions",
"crs": { "type": "name", "properties": { "name": "urn:ogc:def:crs:OGC:1.3:CRS84" } },
"features": [
{ "type": "Feature", "properties": { "region": "Centrale", "superficie_km2": 13291.0, "ctr_lon": 1.0759283454024549, "ctr_lat": 8.6307648389358889 }, "geometry": { "type": "Polygon", "coordinates": [ [ [ 0.533521910885526, 8.867295872484245 ], [ 0.584391258164222, 8.886835242818147 ], [ 0.586684982491882, 8.907146658740537 ], [ 0.580174531797771, 8.915572996920089 ], [ 0.607985817993781, 8.94318674094154 ], [ 0.632733796908896, 8.942154567705359 ], [ 0.640708532160673, 8.960135039463749 ], [ 0.639753278747053, 8.978711326667307 ], [ 0.645342507004255, 8.999550538247099 ], [ 0.641566474626998, 9.015391046490034 ], [ 0.651463103184058, 9.022581052377843 ], [ 0.868474892172178, 8.982941617522409 ], [ 0.873558288023895, 9.005107235458855 ], [ 0.898132033854169, 9.020848801702012 ], [ 0.910304257022159, 9.044158541473218 ], [ 1.007382506414025, 9.140191903051704 ], [ 1.021954631383362, 9.164571249710852 ], [ 1.062943471289007, 9.205144219176161 ], [ 1.135995074471043, 9.229920102632805 ], [ 1.150652563708447, 9.245228486707081 ], [ 1.176656393422721, 9.232217030256573 ], [ 1.218812942983382, 9.229091428570957 ], [ 1.233935712919785, 9.25663131436268 ], [ 1.262085538470138, 9.265529009743306 ], [ 1.296063930189332, 9.305300792191423 ], [ 1.317296138831592, 9.300363347454438 ], [ 1.348776226357238, 9.306523250987954 ], [ 1.386761426775235, 9.327148965903893 ], [ 1.412407353446045, 9.330344032737445 ], [ 1.431667, 9.301389 ], [ 1.462778, 9.270278 ], [ 1.507222, 9.214167 ], [ 1.567222, 9.17 ], [ 1.578333, 9.140278 ], [ 1.604444, 9.104444 ], [ 1.608889, 9.088611 ], [ 1.609722, 9.069167 ], [ 1.617778, 9.049722 ], [ 1.62, 9.006389 ], [ 1.615556, 8.971389 ], [ 1.621111, 8.95 ], [ 1.619444, 8.910833 ], [ 1.627778, 8.881111 ], [ 1.624722, 8.548056 ], [ 1.660833, 8.496944 ], [ 1.659167, 8.486111 ], [ 1.643333, 8.460556 ], [ 1.631111, 8.451944 ], [ 1.624167, 8.425278 ], [ 1.623611, 8.399167 ], [ 1.613056, 8.374722 ], [ 1.613056, 8.369167 ], [ 1.634722, 8.357778 ], [ 1.634444, 8.336046059035127 ], [ 1.582026826347417, 8.353130638255234 ], [ 1.572425609604379, 8.366462324227747 ], [ 1.535338245487723, 8.37907422567233 ], [ 1.523329605839844, 8.388930434666211 ], [ 1.481792866800488, 8.388039529932779 ], [ 1.469075551815859, 8.337720979486026 ], [ 1.459159348123988, 8.338346674669598 ], [ 1.424478540293127, 8.361782842343796 ], [ 1.39601547126618, 8.339151941564257 ], [ 1.381345246024116, 8.357403659373546 ], [ 1.378525782459349, 8.369845942647817 ], [ 1.347659709703424, 8.371829194087923 ], [ 1.344134362863813, 8.360501427291368 ], [ 1.331532814647747, 8.35095569175737 ], [ 1.301303622074548, 8.377624730158804 ], [ 1.292292534709237, 8.377912588189535 ], [ 1.280525098380305, 8.360724680710748 ], [ 1.238170713027389, 8.348816460429203 ], [ 1.22835826103431, 8.337401871898274 ], [ 1.235588190505804, 8.309339879269665 ], [ 1.248391134145968, 8.297673561707684 ], [ 1.253858447971556, 8.276056586774049 ], [ 1.259590150937005, 8.266444247054551 ], [ 1.24824976559689, 8.231496154070014 ], [ 1.279072266725886, 8.208212406596278 ], [ 1.272621507268395, 8.182359373199279 ], [ 1.279398259075204, 8.165801407200956 ], [ 1.253960850337701, 8.143742368495207 ], [ 1.247694059800239, 8.124532108491893 ], [ 1.249190135750623, 8.120090001250857 ], [ 1.275566158388716, 8.101146132821633 ], [ 1.247367348674882, 8.063267365466301 ], [ 1.261566327292811, 8.046920794507262 ], [ 1.242907295058008, 8.021345425278314 ], [ 1.210326278478133, 8.032735592862192 ], [ 1.205623278266652, 8.015699083466812 ], [ 1.163657961738827, 7.992734408674354 ], [ 1.144729755325222, 7.986709582564162 ], [ 1.130238655047285, 7.966405992394796 ], [ 1.105620709380566, 7.981216184178026 ], [ 1.080841015175148, 7.980984799844022 ], [ 1.048427778778299, 7.95811658876278 ], [ 1.036586761744185, 7.958159616464988 ], [ 1.023147589231604, 7.967531851941258 ], [ 1.000485928171616, 7.942849572017488 ], [ 0.984508945700901, 7.993776948096128 ], [ 0.978286958006381, 7.995923490774431 ], [ 0.953615449931076, 7.987201768125985 ], [ 0.922538865164508, 7.985254014275884 ], [ 0.90790371912105, 7.995414400088529 ], [ 0.883077763847544, 7.972210701095543 ], [ 0.860450749289342, 7.96495170194836 ], [ 0.813474498554331, 7.967787667694136 ], [ 0.804173494853168, 7.969285366860149 ], [ 0.786925687604162, 8.005578777083139 ], [ 0.749106176625185, 8.010628249185689 ], [ 0.733172773875253, 8.001565446376615 ], [ 0.71789582242668, 7.930303476490254 ], [ 0.668979707891993, 7.92343094313931 ], [ 0.641139167274038, 7.896856220275875 ], [ 0.622299925613228, 7.894828549985576 ], [ 0.617649, 7.926202 ], [ 0.614885, 7.926953 ], [ 0.611119, 7.940933 ], [ 0.613883, 7.944469 ], [ 0.610741, 7.945358 ], [ 0.612047, 7.949834 ], [ 0.60544, 7.956748 ], [ 0.60658, 7.960864 ], [ 0.603213, 7.962529 ], [ 0.596606, 7.986999 ], [ 0.597366, 7.989948 ], [ 0.607967, 7.991395 ], [ 0.607963, 7.996732 ], [ 0.598488, 8.008425 ], [ 0.597375, 8.014245 ], [ 0.60242, 8.022012 ], [ 0.593906, 8.040404 ], [ 0.597421, 8.044294 ], [ 0.598775, 8.056697 ], [ 0.597356, 8.061313 ], [ 0.592638, 8.061338 ], [ 0.584628, 8.093466 ], [ 0.586133, 8.103343 ], [ 0.592527, 8.103335 ], [ 0.591574, 8.138067 ], [ 0.606178, 8.139246 ], [ 0.609806, 8.145133 ], [ 0.610294, 8.163705 ], [ 0.607041, 8.172637 ], [ 0.612199, 8.175314 ], [ 0.613936, 8.185035 ], [ 0.599536, 8.186136 ], [ 0.590025, 8.194794 ], [ 0.588614, 8.202469 ], [ 0.601632, 8.214063 ], [ 0.61929, 8.215801 ], [ 0.619574, 8.219902 ], [ 0.626223, 8.224847 ], [ 0.627392, 8.231403 ], [ 0.623842, 8.23392 ], [ 0.624549, 8.237336 ], [ 0.638253, 8.245847 ], [ 0.638437, 8.260299 ], [ 0.674354, 8.259463 ], [ 0.681854, 8.265335 ], [ 0.683703, 8.276893 ], [ 0.688029, 8.280756 ], [ 0.710756, 8.289061 ], [ 0.731133, 8.286651 ], [ 0.729105, 8.290912 ], [ 0.731475, 8.314612 ], [ 0.728709, 8.316283 ], [ 0.730016, 8.333292 ], [ 0.727271, 8.33765 ], [ 0.73004, 8.34088 ], [ 0.725574, 8.34409 ], [ 0.717931, 8.34328 ], [ 0.720542, 8.349405 ], [ 0.710492, 8.351587 ], [ 0.711766, 8.366562 ], [ 0.707891, 8.371712 ], [ 0.712553, 8.376809 ], [ 0.708229, 8.377343 ], [ 0.711614, 8.379267 ], [ 0.707733, 8.384099 ], [ 0.709742, 8.385089 ], [ 0.699067, 8.38868 ], [ 0.705548, 8.394808 ], [ 0.693472, 8.395281 ], [ 0.696493, 8.40474 ], [ 0.688839, 8.405665 ], [ 0.686092, 8.411582 ], [ 0.679136, 8.410036 ], [ 0.671668, 8.417805 ], [ 0.651659, 8.42244 ], [ 0.654274, 8.428775 ], [ 0.651699, 8.43272 ], [ 0.653939, 8.445402 ], [ 0.651658, 8.44843 ], [ 0.656028, 8.455694 ], [ 0.650767, 8.461183 ], [ 0.649003, 8.472555 ], [ 0.644786, 8.475757 ], [ 0.645734, 8.493518 ], [ 0.63975, 8.497893 ], [ 0.629254, 8.496371 ], [ 0.626215, 8.503007 ], [ 0.630213, 8.507873 ], [ 0.624749, 8.511269 ], [ 0.611258, 8.513216 ], [ 0.601765, 8.518338 ], [ 0.5905, 8.516352 ], [ 0.583182, 8.526524 ], [ 0.580313, 8.523739 ], [ 0.573854, 8.527817 ], [ 0.57122, 8.524177 ], [ 0.571176, 8.533348 ], [ 0.564733, 8.538678 ], [ 0.563652, 8.54564 ], [ 0.551436, 8.548958 ], [ 0.553671, 8.553357 ], [ 0.54878, 8.552409 ], [ 0.5358238, 8.5577508 ], [ 0.5318418, 8.5695265 ], [ 0.528011, 8.569472 ], [ 0.523799, 8.56396 ], [ 0.511813, 8.563565 ], [ 0.509952, 8.57188 ], [ 0.505177, 8.569712 ], [ 0.499727, 8.573448 ], [ 0.501519, 8.578999 ], [ 0.494326, 8.585559 ], [ 0.495754, 8.592437 ], [ 0.492079, 8.597099 ], [ 0.479999, 8.597922 ], [ 0.480062, 8.593759 ], [ 0.469556, 8.595649 ], [ 0.471471, 8.599504 ], [ 0.3826689, 8.7395378 ], [ 0.385235, 8.745134 ], [ 0.373824, 8.754676 ], [ 0.395829, 8.75386 ], [ 0.40092, 8.756869 ], [ 0.399655, 8.761063 ], [ 0.389246, 8.761681 ], [ 0.378167, 8.771988 ], [ 0.382035, 8.77767 ], [ 0.380067, 8.792793 ], [ 0.390195, 8.790491 ], [ 0.392456, 8.796626 ], [ 0.397973, 8.78956 ], [ 0.399781, 8.793965 ], [ 0.417983, 8.79234 ], [ 0.424008, 8.789592 ], [ 0.423551, 8.781079 ], [ 0.42777, 8.779136 ], [ 0.441122, 8.78801 ], [ 0.437487, 8.794367 ], [ 0.430636, 8.790748 ], [ 0.430336, 8.797565 ], [ 0.44256, 8.801622 ], [ 0.448214, 8.811355 ], [ 0.459668, 8.80973 ], [ 0.459036, 8.802173 ], [ 0.463757, 8.80054 ], [ 0.469049, 8.79178 ], [ 0.472023, 8.799465 ], [ 0.491319, 8.800359 ], [ 0.500394, 8.814492 ], [ 0.495357, 8.820469 ], [ 0.496823, 8.827157 ], [ 0.501398, 8.828874 ], [ 0.496002, 8.839736 ], [ 0.507559, 8.847675 ], [ 0.508729, 8.855237 ], [ 0.519538, 8.852986 ], [ 0.521486, 8.858505 ], [ 0.516911, 8.863978 ], [ 0.521921, 8.874012 ], [ 0.533521910885526, 8.867295872484245 ] ] ] } },
{ "type": "Feature", "properties": { "region": "Kara", "superficie_km2": 11492.4, "ctr_lon": 0.86446418604375685, "ctr_lat": 9.5992064828380972 }, "geometry": { "type": "Polygon", "coordinates": [ [ [ 0.41718206489085, 10.043565166350309 ], [ 0.4250254552134, 10.03155174382697 ], [ 0.424511328730025, 10.001153171107321 ], [ 0.445499497230515, 9.976146267736864 ], [ 0.445425491529211, 9.966796634717127 ], [ 0.479254684402221, 9.943299534039868 ], [ 0.492673821873033, 9.950352297931049 ], [ 0.528356138753624, 9.949416362418047 ], [ 0.515131771151449, 9.91200368828863 ], [ 0.529514182245661, 9.905394164894242 ], [ 0.552261956858531, 9.902998252339438 ], [ 0.557885209834417, 9.89494404138153 ], [ 0.593947186997305, 9.893298314363745 ], [ 0.600469296832347, 9.898088954948747 ], [ 0.62143848910887, 9.885243108493896 ], [ 0.648026894248922, 9.905102946781852 ], [ 0.647758871572579, 9.915465686140889 ], [ 0.641004311768129, 9.922802026617562 ], [ 0.665770900780641, 9.943463031703581 ], [ 0.649472994228301, 9.958962439044601 ], [ 0.649879372589959, 9.973958495309953 ], [ 0.683245705612687, 9.981647090065334 ], [ 0.7103026649814, 9.995796888766078 ], [ 0.701512231041296, 10.025757900477398 ], [ 0.685937681768597, 10.030590721072384 ], [ 0.678702417614581, 10.041064434450867 ], [ 0.696265103205394, 10.064006520361168 ], [ 0.686988550188688, 10.091787028538317 ], [ 0.71990748426242, 10.10106626035072 ], [ 0.745175546240326, 10.156943228404826 ], [ 0.825478865558996, 10.125435930655511 ], [ 0.857978293502656, 10.139459263291318 ], [ 0.867993810862096, 10.139288510494824 ], [ 0.88461343437731, 10.168576476418881 ], [ 0.885633113325931, 10.227491181390937 ], [ 0.8883386792699, 10.233307103927249 ], [ 0.90320354944515, 10.24492268122304 ], [ 0.91372712536325, 10.280310053860214 ], [ 1.098219, 10.149886 ], [ 1.152778, 10.120833 ], [ 1.355, 9.995278 ], [ 1.363333, 9.825833 ], [ 1.3725, 9.807778 ], [ 1.363056, 9.766667 ], [ 1.365833, 9.663333 ], [ 1.366389, 9.658611 ], [ 1.373333, 9.652778 ], [ 1.373889, 9.646667 ], [ 1.367222, 9.633056 ], [ 1.368333, 9.596667 ], [ 1.3375, 9.5425 ], [ 1.352222, 9.517222 ], [ 1.361111, 9.485556 ], [ 1.370278, 9.481667 ], [ 1.385, 9.494444 ], [ 1.390556, 9.4875 ], [ 1.398056, 9.430278 ], [ 1.400278, 9.378611 ], [ 1.412407353446045, 9.330344032737445 ], [ 1.386761426775235, 9.327148965903893 ], [ 1.348776226357238, 9.306523250987954 ], [ 1.317296138831592, 9.300363347454438 ], [ 1.296063930189332, 9.305300792191423 ], [ 1.262085538470138, 9.265529009743306 ], [ 1.233935712919785, 9.25663131436268 ], [ 1.218812942983382, 9.229091428570957 ], [ 1.176656393422721, 9.232217030256573 ], [ 1.150652563708447, 9.245228486707081 ], [ 1.135995074471043, 9.229920102632805 ], [ 1.062943471289007, 9.205144219176161 ], [ 1.021954631383362, 9.164571249710852 ], [ 1.007382506414025, 9.140191903051704 ], [ 0.910304257022159, 9.044158541473218 ], [ 0.898132033854169, 9.020848801702012 ], [ 0.873558288023895, 9.005107235458855 ], [ 0.868474892172178, 8.982941617522409 ], [ 0.651463103184058, 9.022581052377843 ], [ 0.641566474626998, 9.015391046490034 ], [ 0.645342507004255, 8.999550538247099 ], [ 0.639753278747053, 8.978711326667307 ], [ 0.640708532160673, 8.960135039463749 ], [ 0.632733796908896, 8.942154567705359 ], [ 0.607985817993781, 8.94318674094154 ], [ 0.580174531797771, 8.915572996920089 ], [ 0.586684982491882, 8.907146658740537 ], [ 0.584391258164222, 8.886835242818147 ], [ 0.533521910885526, 8.867295872484245 ], [ 0.523658697296995, 8.875134321047796 ], [ 0.527313, 8.879172 ], [ 0.522033, 8.883722 ], [ 0.522042, 8.889869 ], [ 0.515093, 8.901627 ], [ 0.512422, 8.901594 ], [ 0.512606, 8.914172 ], [ 0.509011, 8.918174 ], [ 0.516568, 8.938686 ], [ 0.509629, 8.941039 ], [ 0.503846, 8.952138 ], [ 0.494202, 8.954029 ], [ 0.468337, 9.004704 ], [ 0.470697, 9.019383 ], [ 0.465408, 9.022826 ], [ 0.463269, 9.03433 ], [ 0.456948, 9.035334 ], [ 0.456238, 9.043858 ], [ 0.457492, 9.055254 ], [ 0.462502, 9.05425 ], [ 0.462477, 9.076142 ], [ 0.473068, 9.096322 ], [ 0.482827, 9.099434 ], [ 0.4866973, 9.1086645 ], [ 0.482849, 9.116669 ], [ 0.48491, 9.122979 ], [ 0.480923, 9.139498 ], [ 0.476761, 9.144977 ], [ 0.495432, 9.155974 ], [ 0.503093, 9.154122 ], [ 0.504843, 9.160455 ], [ 0.51157, 9.163661 ], [ 0.522006, 9.193719 ], [ 0.533602, 9.209416 ], [ 0.505835, 9.256413 ], [ 0.518657, 9.277156 ], [ 0.528435, 9.285572 ], [ 0.538395, 9.305841 ], [ 0.552626, 9.303926 ], [ 0.555794, 9.311206 ], [ 0.545134, 9.340876 ], [ 0.552505, 9.352288 ], [ 0.5670034, 9.4059263 ], [ 0.557033, 9.411167 ], [ 0.55502, 9.423136 ], [ 0.548823, 9.42224 ], [ 0.538159, 9.425858 ], [ 0.536018, 9.429773 ], [ 0.532789, 9.428491 ], [ 0.531605, 9.431874 ], [ 0.524573, 9.43165 ], [ 0.519308, 9.440312 ], [ 0.510051, 9.436926 ], [ 0.503435, 9.440452 ], [ 0.499967, 9.437939 ], [ 0.500131, 9.443724 ], [ 0.495306, 9.44599 ], [ 0.494772, 9.452177 ], [ 0.503861, 9.458388 ], [ 0.505662, 9.467607 ], [ 0.500625, 9.472325 ], [ 0.503259, 9.47449 ], [ 0.488754, 9.4869 ], [ 0.482625, 9.48503 ], [ 0.474178, 9.490675 ], [ 0.463334, 9.490115 ], [ 0.457068, 9.497879 ], [ 0.448704, 9.499486 ], [ 0.439062, 9.495069 ], [ 0.428808, 9.499612 ], [ 0.414599, 9.500684 ], [ 0.414978, 9.496388 ], [ 0.41165, 9.498473 ], [ 0.407512, 9.493985 ], [ 0.401419, 9.495434 ], [ 0.389012, 9.491553 ], [ 0.385628, 9.494057 ], [ 0.38218, 9.494373 ], [ 0.382582, 9.491746 ], [ 0.37615, 9.493141 ], [ 0.370362, 9.498652 ], [ 0.36929, 9.495957 ], [ 0.359421, 9.499213 ], [ 0.355152, 9.494033 ], [ 0.35025, 9.493223 ], [ 0.350153, 9.490041 ], [ 0.343547, 9.488299 ], [ 0.35049, 9.475308 ], [ 0.347592, 9.470866 ], [ 0.344853, 9.472447 ], [ 0.337541, 9.451738 ], [ 0.333538, 9.452689 ], [ 0.331704, 9.448234 ], [ 0.326958, 9.447012 ], [ 0.321981, 9.449116 ], [ 0.320243, 9.446184 ], [ 0.31252, 9.446243 ], [ 0.299549, 9.435899 ], [ 0.289238, 9.434335 ], [ 0.285293, 9.429867 ], [ 0.276954, 9.430489 ], [ 0.275777, 9.427417 ], [ 0.26887, 9.428434 ], [ 0.27031, 9.431703 ], [ 0.26088, 9.428705 ], [ 0.259315, 9.434362 ], [ 0.2470335, 9.4380382 ], [ 0.247938, 9.4424684 ], [ 0.2292323, 9.4635077 ], [ 0.2270527, 9.4783821 ], [ 0.2300477, 9.4864611 ], [ 0.2544832, 9.47779 ], [ 0.2697037, 9.4788742 ], [ 0.2749678, 9.487396 ], [ 0.2867281, 9.4868473 ], [ 0.3110075, 9.5048893 ], [ 0.3091514, 9.5127037 ], [ 0.2970869, 9.5228496 ], [ 0.2804142, 9.5258031 ], [ 0.2555609, 9.5194122 ], [ 0.2432501, 9.5245324 ], [ 0.2375471, 9.5342995 ], [ 0.235455, 9.5482921 ], [ 0.240063, 9.574648 ], [ 0.2532379, 9.5744023 ], [ 0.2669094, 9.5665559 ], [ 0.2894165, 9.5766733 ], [ 0.3185078, 9.5754376 ], [ 0.334265, 9.5785942 ], [ 0.3513367, 9.5719628 ], [ 0.3721374, 9.5789689 ], [ 0.38369, 9.5914565 ], [ 0.3735083, 9.6066686 ], [ 0.3711641, 9.6185902 ], [ 0.35631, 9.6250745 ], [ 0.3032184, 9.596381 ], [ 0.2958524, 9.5956252 ], [ 0.2773622, 9.6204628 ], [ 0.2757578, 9.6315919 ], [ 0.2642978, 9.6536233 ], [ 0.2638394, 9.6636216 ], [ 0.2792531, 9.6862722 ], [ 0.294495, 9.6801155 ], [ 0.3054393, 9.6681971 ], [ 0.3090492, 9.6585378 ], [ 0.3229731, 9.6509118 ], [ 0.3407362, 9.6570126 ], [ 0.3508783, 9.6748059 ], [ 0.3515659, 9.6941233 ], [ 0.3448022, 9.7176855 ], [ 0.3388096, 9.7222244 ], [ 0.3243739, 9.7227317 ], [ 0.3189048, 9.7278978 ], [ 0.3299637, 9.7611041 ], [ 0.3250932, 9.7720593 ], [ 0.3338602, 9.7738098 ], [ 0.3360376, 9.778779 ], [ 0.3296772, 9.7928956 ], [ 0.3397048, 9.8041884 ], [ 0.338215, 9.8140129 ], [ 0.3503053, 9.8258132 ], [ 0.357399, 9.8466959 ], [ 0.3553477, 9.8738568 ], [ 0.3511648, 9.8814777 ], [ 0.3512794, 9.9041698 ], [ 0.3551758, 9.9218934 ], [ 0.3597598, 9.9295132 ], [ 0.3873218, 9.9373878 ], [ 0.3865763, 9.9510168 ], [ 0.3694435, 9.9640537 ], [ 0.3586711, 9.9888846 ], [ 0.3575824, 9.9971235 ], [ 0.3615997, 10.0011193 ], [ 0.3646734, 10.015588 ], [ 0.3610428, 10.0306108 ], [ 0.3653335, 10.0342219 ], [ 0.3737762, 10.0263817 ], [ 0.3935445, 10.0254281 ], [ 0.4014417, 10.0195712 ], [ 0.4094095, 10.0207209 ], [ 0.4146849, 10.0324436 ], [ 0.41330959724817, 10.044213163556003 ], [ 0.41718206489085, 10.043565166350309 ] ] ] } },
{ "type": "Feature", "properties": { "region": "Maritime", "superficie_km2": 6331.3, "ctr_lon": 1.2773630645054039, "ctr_lat": 6.5022173607559264 }, "geometry": { "type": "Polygon", "coordinates": [ [ [ 0.730555575358179, 6.508745074309729 ], [ 0.741911826409244, 6.545232664896615 ], [ 0.760880070427302, 6.540136101647296 ], [ 0.77617323441293, 6.553526993663512 ], [ 0.796780464256819, 6.554614502444695 ], [ 0.804256560040713, 6.572647078083206 ], [ 0.802413829730034, 6.58622160835955 ], [ 0.812239898466862, 6.595193467971336 ], [ 0.83527636843758, 6.593858414186712 ], [ 0.845360930449061, 6.601272286262583 ], [ 0.84028548610623, 6.619437217053261 ], [ 0.846976987063548, 6.638909744073664 ], [ 0.880713770691917, 6.639665977883071 ], [ 0.879335625603835, 6.670107829199174 ], [ 0.888205733744509, 6.681319277141681 ], [ 0.889637842405304, 6.703252440989902 ], [ 0.877227792149074, 6.714154311922746 ], [ 0.895575486507529, 6.733892215848004 ], [ 0.890883345586816, 6.757600538084043 ], [ 0.88341848176576, 6.760180156933759 ], [ 0.879707270563116, 6.790150500167489 ], [ 0.891012935299364, 6.795882529615972 ], [ 0.887776728138791, 6.80694263076517 ], [ 0.894835815049465, 6.859484883468208 ], [ 0.923778446477171, 6.845332603874504 ], [ 0.934212479467306, 6.831110179348026 ], [ 0.976557269465642, 6.833515631414129 ], [ 0.98672127841632, 6.85198581578346 ], [ 0.992812987003602, 6.85476962214114 ], [ 0.996826259241904, 6.853819718447206 ], [ 1.012530449959975, 6.826883131045809 ], [ 1.04168461841281, 6.844154842370331 ], [ 1.042970665082903, 6.83062143854184 ], [ 1.063880153597612, 6.812820011574037 ], [ 1.07938980921898, 6.830051240024378 ], [ 1.101178033951311, 6.830021908858688 ], [ 1.109315953074151, 6.81597071627277 ], [ 1.124892412002387, 6.807917970729055 ], [ 1.128695141476548, 6.791456136223838 ], [ 1.149929058620118, 6.787887194824775 ], [ 1.158182406253033, 6.780156026382151 ], [ 1.159960621900985, 6.773283385994041 ], [ 1.173453505996164, 6.776435314152262 ], [ 1.192924002189897, 6.768263885915447 ], [ 1.192750566243547, 6.758801437674105 ], [ 1.196441581103031, 6.751322205180919 ], [ 1.230179772197205, 6.739978484052994 ], [ 1.241338994939001, 6.759216301671344 ], [ 1.259315485692099, 6.76488091636244 ], [ 1.265801995383723, 6.762185336336306 ], [ 1.304035118689716, 6.792165821410445 ], [ 1.308087592593653, 6.792461132328758 ], [ 1.30881723327334, 6.80014197316913 ], [ 1.323599869621949, 6.828340045870807 ], [ 1.348600327497747, 6.815294854424574 ], [ 1.361054907779445, 6.841988026844469 ], [ 1.379251647894625, 6.848447073370888 ], [ 1.439667750647784, 6.829662528839251 ], [ 1.472380407723581, 6.871801824450305 ], [ 1.511879154578594, 6.864974521022287 ], [ 1.597877532875241, 6.870554592748171 ], [ 1.601397800000029, 6.837523799999985 ], [ 1.597624300000064, 6.830920099999958 ], [ 1.602026799999976, 6.826517600000045 ], [ 1.609888399999988, 6.828404400000011 ], [ 1.612561299999982, 6.825102500000014 ], [ 1.6028129, 6.819442100000117 ], [ 1.595414700000049, 6.809167000000116 ], [ 1.594322400000067, 6.799473600000113 ], [ 1.607358700000077, 6.796667 ], [ 1.613976400000013, 6.789725199999964 ], [ 1.608316100000081, 6.7718008 ], [ 1.616334900000084, 6.76378190000014 ], [ 1.624668200000031, 6.763467500000047 ], [ 1.622914700000081, 6.757778 ], [ 1.615548700000033, 6.754033500000048 ], [ 1.6232531, 6.737366899999984 ], [ 1.620894600000042, 6.734222300000056 ], [ 1.604783900000029, 6.7331375 ], [ 1.596247700000049, 6.719444 ], [ 1.596909900000128, 6.728798700000027 ], [ 1.590803400000027, 6.7278346 ], [ 1.591525699999977, 6.717778 ], [ 1.588469700000076, 6.713611 ], [ 1.593213900000023, 6.702123299999982 ], [ 1.581483100000014, 6.690231800000049 ], [ 1.5754397, 6.691279400000042 ], [ 1.575055300000031, 6.688464099999976 ], [ 1.58084029999992, 6.683803900000044 ], [ 1.585982600000136, 6.687499899999921 ], [ 1.5901222, 6.681337300000052 ], [ 1.5882479, 6.674197100000072 ], [ 1.596280700000079, 6.675892900000065 ], [ 1.598690499999975, 6.670716200000015 ], [ 1.607705099999976, 6.664825500000063 ], [ 1.607615800000076, 6.660005900000044 ], [ 1.6043027, 6.657778000000121 ], [ 1.607437300000015, 6.652419300000076 ], [ 1.615559400000052, 6.650991300000101 ], [ 1.612346200000104, 6.644386600000018 ], [ 1.6024392, 6.645011300000021 ], [ 1.602573, 6.636353800000109 ], [ 1.606946400000083, 6.632515899999987 ], [ 1.604025700000022, 6.625556 ], [ 1.611676899999964, 6.626893 ], [ 1.6101595, 6.613415800000041 ], [ 1.624350800000059, 6.601723600000014 ], [ 1.628367200000014, 6.603865699999972 ], [ 1.6352397, 6.601277400000072 ], [ 1.646307, 6.581864800000062 ], [ 1.652554700000053, 6.580258299999969 ], [ 1.652822500000013, 6.575170800000024 ], [ 1.662104800000122, 6.581775600000128 ], [ 1.667192200000045, 6.57972280000007 ], [ 1.666046, 6.5732721 ], [ 1.6579147, 6.575 ], [ 1.658177700000067, 6.571957700000098 ], [ 1.667995500000075, 6.56629020000014 ], [ 1.6710301, 6.555579799999975 ], [ 1.680133900000044, 6.563880300000051 ], [ 1.6839718, 6.562184500000058 ], [ 1.687095699999986, 6.551027899999951 ], [ 1.697641299999987, 6.55523450000004 ], [ 1.693432600000108, 6.546654499999931 ], [ 1.701819300000011, 6.53787 ], [ 1.699276600000132, 6.534247600000128 ], [ 1.7027597, 6.531879100000083 ], [ 1.699833900000044, 6.52560950000003 ], [ 1.701923799999975, 6.514881600000081 ], [ 1.701645199999973, 6.512373700000012 ], [ 1.692031800000052, 6.519339899999977 ], [ 1.695514900000092, 6.5101446 ], [ 1.693843000000129, 6.504432300000019 ], [ 1.702341800000056, 6.505686200000014 ], [ 1.705128300000069, 6.498023400000022 ], [ 1.712295499999925, 6.504521500000124 ], [ 1.716985800000089, 6.500166200000024 ], [ 1.718605100000104, 6.4924049 ], [ 1.724300500000084, 6.492237399999965 ], [ 1.729751, 6.486842500000023 ], [ 1.737813100000096, 6.487770400000045 ], [ 1.738539000000117, 6.483973499999934 ], [ 1.731224300000065, 6.478501399999971 ], [ 1.7347979, 6.474537 ], [ 1.737422200000083, 6.479059800000016 ], [ 1.744960200000094, 6.473699400000044 ], [ 1.752609899999925, 6.4750954000001 ], [ 1.753112400000134, 6.469902500000103 ], [ 1.749483, 6.469232500000089 ], [ 1.746523700000125, 6.46353709999994 ], [ 1.758389100000102, 6.460298500000022 ], [ 1.753475400000127, 6.455049800000097 ], [ 1.7549272, 6.446283400000027 ], [ 1.764754500000095, 6.440197200000057 ], [ 1.767155499999944, 6.432212400000026 ], [ 1.778975900000091, 6.427037300000109 ], [ 1.777473100000122, 6.4231683000001 ], [ 1.771587400000044, 6.425532700000133 ], [ 1.7694699, 6.417409900000052 ], [ 1.7639484, 6.413054300000113 ], [ 1.765963500000112, 6.40674150000001 ], [ 1.776102600000058, 6.407756499999948 ], [ 1.76786020000003, 6.397087900000088 ], [ 1.77309710000003, 6.395006200000012 ], [ 1.774155800000074, 6.386543600000039 ], [ 1.785141800000076, 6.383225799999934 ], [ 1.782491400000026, 6.372884100000135 ], [ 1.787045200000023, 6.351864199999966 ], [ 1.779929900000013, 6.345110700000021 ], [ 1.787400900000137, 6.341362700000104 ], [ 1.784661500000141, 6.333318500000132 ], [ 1.7910938, 6.3355391 ], [ 1.791349900000057, 6.328226799999982 ], [ 1.796871399999986, 6.3235876 ], [ 1.796014800000023, 6.313058799999965 ], [ 1.788321399999916, 6.308660800000041 ], [ 1.793448399999932, 6.306117799999981 ], [ 1.791944, 6.296389 ], [ 1.8025, 6.280278 ], [ 1.778611000000126, 6.278889 ], [ 1.765278, 6.271111 ], [ 1.747222, 6.270278 ], [ 1.739444, 6.264167 ], [ 1.722500000000139, 6.265278 ], [ 1.714722, 6.259444 ], [ 1.703056, 6.260556 ], [ 1.693889, 6.255833 ], [ 1.684444, 6.258889 ], [ 1.6675, 6.248333 ], [ 1.656667000000141, 6.25 ], [ 1.6302541, 6.234909500000015 ], [ 1.523550600000135, 6.209856800000125 ], [ 1.486298, 6.204521 ], [ 1.390315000000101, 6.179755 ], [ 1.29504570000006, 6.14908400000013 ], [ 1.2845615, 6.143491200000085 ], [ 1.285297599999922, 6.140891 ], [ 1.281177200000059, 6.1418175 ], [ 1.283047200000112, 6.1392866 ], [ 1.280083400000024, 6.140635 ], [ 1.285183600000096, 6.135221800000124 ], [ 1.262440500000025, 6.133989199999917 ], [ 1.199624200000017, 6.112430099999926 ], [ 1.199438100000066, 6.169120600000042 ], [ 1.082896199999936, 6.169635 ], [ 1.082907, 6.187279 ], [ 1.067704000000106, 6.209218 ], [ 1.063258, 6.223399 ], [ 1.053863, 6.234572000000128 ], [ 1.048257, 6.233375 ], [ 1.038090000000125, 6.23763 ], [ 1.024198, 6.256126 ], [ 1.016007000000116, 6.286773 ], [ 1.007002, 6.297205 ], [ 1.005303, 6.310989 ], [ 1.008218000000113, 6.321066 ], [ 1.003468, 6.335475 ], [ 0.893104, 6.333333 ], [ 0.885301, 6.352319000000136 ], [ 0.861879, 6.380469000000119 ], [ 0.835692, 6.396935 ], [ 0.789115, 6.408741 ], [ 0.782563, 6.433095 ], [ 0.749588, 6.444123 ], [ 0.744045, 6.483204 ], [ 0.727114, 6.490261 ], [ 0.718956, 6.502534 ], [ 0.730555575358179, 6.508745074309729 ] ] ] } },
{ "type": "Feature", "properties": { "region": "Plateaux", "superficie_km2": 17213.7, "ctr_lon": 1.1316257238106269, "ctr_lat": 7.4495523165036053 }, "geometry": { "type": "Polygon", "coordinates": [ [ [ 0.641139167274038, 7.896856220275875 ], [ 0.668979707891993, 7.92343094313931 ], [ 0.71789582242668, 7.930303476490254 ], [ 0.733172773875253, 8.001565446376615 ], [ 0.749106176625185, 8.010628249185689 ], [ 0.786925687604162, 8.005578777083139 ], [ 0.804173494853168, 7.969285366860149 ], [ 0.813474498554331, 7.967787667694136 ], [ 0.860450749289342, 7.96495170194836 ], [ 0.883077763847544, 7.972210701095543 ], [ 0.90790371912105, 7.995414400088529 ], [ 0.922538865164508, 7.985254014275884 ], [ 0.953615449931076, 7.987201768125985 ], [ 0.978286958006381, 7.995923490774431 ], [ 0.984508945700901, 7.993776948096128 ], [ 1.000485928171616, 7.942849572017488 ], [ 1.023147589231604, 7.967531851941258 ], [ 1.036586761744185, 7.958159616464988 ], [ 1.048427778778299, 7.95811658876278 ], [ 1.080841015175148, 7.980984799844022 ], [ 1.105620709380566, 7.981216184178026 ], [ 1.130238655047285, 7.966405992394796 ], [ 1.144729755325222, 7.986709582564162 ], [ 1.163657961738827, 7.992734408674354 ], [ 1.205623278266652, 8.015699083466812 ], [ 1.210326278478133, 8.032735592862192 ], [ 1.242907295058008, 8.021345425278314 ], [ 1.261566327292811, 8.046920794507262 ], [ 1.247367348674882, 8.063267365466301 ], [ 1.275566158388716, 8.101146132821633 ], [ 1.249190135750623, 8.120090001250857 ], [ 1.247694059800239, 8.124532108491893 ], [ 1.253960850337701, 8.143742368495207 ], [ 1.279398259075204, 8.165801407200956 ], [ 1.272621507268395, 8.182359373199279 ], [ 1.279072266725886, 8.208212406596278 ], [ 1.24824976559689, 8.231496154070014 ], [ 1.259590150937005, 8.266444247054551 ], [ 1.253858447971556, 8.276056586774049 ], [ 1.248391134145968, 8.297673561707684 ], [ 1.235588190505804, 8.309339879269665 ], [ 1.22835826103431, 8.337401871898274 ], [ 1.238170713027389, 8.348816460429203 ], [ 1.280525098380305, 8.360724680710748 ], [ 1.292292534709237, 8.377912588189535 ], [ 1.301303622074548, 8.377624730158804 ], [ 1.331532814647747, 8.35095569175737 ], [ 1.344134362863813, 8.360501427291368 ], [ 1.347659709703424, 8.371829194087923 ], [ 1.378525782459349, 8.369845942647817 ], [ 1.381345246024116, 8.357403659373546 ], [ 1.39601547126618, 8.339151941564257 ], [ 1.424478540293127, 8.361782842343796 ], [ 1.459159348123988, 8.338346674669598 ], [ 1.469075551815859, 8.337720979486026 ], [ 1.481792866800488, 8.388039529932779 ], [ 1.523329605839844, 8.388930434666211 ], [ 1.535338245487723, 8.37907422567233 ], [ 1.572425609604379, 8.366462324227747 ], [ 1.582026826347417, 8.353130638255234 ], [ 1.634444, 8.336046059035127 ], [ 1.638056, 7.846389 ], [ 1.645833, 7.776111 ], [ 1.639167, 7.757778 ], [ 1.641389, 7.636389 ], [ 1.648056, 7.598611 ], [ 1.649444, 7.553333 ], [ 1.655833, 7.5325 ], [ 1.649722, 7.510833 ], [ 1.650833, 7.478611 ], [ 1.643889, 7.425278 ], [ 1.6425, 6.995556 ], [ 1.5591747, 6.997177 ], [ 1.5590323, 6.9929059 ], [ 1.5614361, 6.9717524 ], [ 1.5758721, 6.9427288 ], [ 1.5801377, 6.9402121 ], [ 1.578044100000056, 6.9195727 ], [ 1.583630600000049, 6.910086500000091 ], [ 1.605765400000053, 6.9050547 ], [ 1.602627699999971, 6.89025 ], [ 1.607086599999946, 6.881986700000027 ], [ 1.605170900000076, 6.874952899999982 ], [ 1.597877532875241, 6.870554592748171 ], [ 1.511879154578594, 6.864974521022287 ], [ 1.472380407723581, 6.871801824450305 ], [ 1.439667750647784, 6.829662528839251 ], [ 1.379251647894625, 6.848447073370888 ], [ 1.361054907779445, 6.841988026844469 ], [ 1.348600327497747, 6.815294854424574 ], [ 1.323599869621949, 6.828340045870807 ], [ 1.30881723327334, 6.80014197316913 ], [ 1.308087592593653, 6.792461132328758 ], [ 1.304035118689716, 6.792165821410445 ], [ 1.265801995383723, 6.762185336336306 ], [ 1.259315485692099, 6.76488091636244 ], [ 1.241338994939001, 6.759216301671344 ], [ 1.230179772197205, 6.739978484052994 ], [ 1.196441581103031, 6.751322205180919 ], [ 1.192750566243547, 6.758801437674105 ], [ 1.192924002189897, 6.768263885915447 ], [ 1.173453505996164, 6.776435314152262 ], [ 1.159960621900985, 6.773283385994041 ], [ 1.158182406253033, 6.780156026382151 ], [ 1.149929058620118, 6.787887194824775 ], [ 1.128695141476548, 6.791456136223838 ], [ 1.124892412002387, 6.807917970729055 ], [ 1.109315953074151, 6.81597071627277 ], [ 1.101178033951311, 6.830021908858688 ], [ 1.07938980921898, 6.830051240024378 ], [ 1.063880153597612, 6.812820011574037 ], [ 1.042970665082903, 6.83062143854184 ], [ 1.04168461841281, 6.844154842370331 ], [ 1.012530449959975, 6.826883131045809 ], [ 0.996826259241904, 6.853819718447206 ], [ 0.992812987003602, 6.85476962214114 ], [ 0.98672127841632, 6.85198581578346 ], [ 0.976557269465642, 6.833515631414129 ], [ 0.934212479467306, 6.831110179348026 ], [ 0.923778446477171, 6.845332603874504 ], [ 0.894835815049465, 6.859484883468208 ], [ 0.887776728138791, 6.80694263076517 ], [ 0.891012935299364, 6.795882529615972 ], [ 0.879707270563116, 6.790150500167489 ], [ 0.88341848176576, 6.760180156933759 ], [ 0.890883345586816, 6.757600538084043 ], [ 0.895575486507529, 6.733892215848004 ], [ 0.877227792149074, 6.714154311922746 ], [ 0.889637842405304, 6.703252440989902 ], [ 0.888205733744509, 6.681319277141681 ], [ 0.879335625603835, 6.670107829199174 ], [ 0.880713770691917, 6.639665977883071 ], [ 0.846976987063548, 6.638909744073664 ], [ 0.84028548610623, 6.619437217053261 ], [ 0.845360930449061, 6.601272286262583 ], [ 0.83527636843758, 6.593858414186712 ], [ 0.812239898466862, 6.595193467971336 ], [ 0.802413829730034, 6.58622160835955 ], [ 0.804256560040713, 6.572647078083206 ], [ 0.796780464256819, 6.554614502444695 ], [ 0.77617323441293, 6.553526993663512 ], [ 0.760880070427302, 6.540136101647296 ], [ 0.741911826409244, 6.545232664896615 ], [ 0.730555575358179, 6.508745074309729 ], [ 0.718791659215884, 6.503564864918547 ], [ 0.712423, 6.529177 ], [ 0.72904, 6.549698 ], [ 0.747563, 6.562948 ], [ 0.741341, 6.584151 ], [ 0.728265, 6.593984 ], [ 0.704588, 6.587705 ], [ 0.687342, 6.59263 ], [ 0.68415, 6.597625 ], [ 0.691357, 6.598629 ], [ 0.673311, 6.613904 ], [ 0.66997, 6.608212 ], [ 0.664935, 6.608631 ], [ 0.666152, 6.604382 ], [ 0.657178, 6.607584 ], [ 0.643419, 6.632006 ], [ 0.636482, 6.633943 ], [ 0.640017, 6.63879 ], [ 0.635398, 6.641511 ], [ 0.6387144, 6.6545639 ], [ 0.649652, 6.674318 ], [ 0.646197, 6.686047 ], [ 0.642662, 6.688304 ], [ 0.648102, 6.712867 ], [ 0.641364, 6.72241 ], [ 0.650103, 6.737243 ], [ 0.631236, 6.749432 ], [ 0.625434, 6.747115 ], [ 0.618778, 6.754806 ], [ 0.609171, 6.749951 ], [ 0.608712, 6.746976 ], [ 0.600566, 6.756799 ], [ 0.581441, 6.761493 ], [ 0.572368, 6.773562 ], [ 0.577536, 6.774436 ], [ 0.566626, 6.782317 ], [ 0.569897, 6.785053 ], [ 0.566203, 6.788668 ], [ 0.569835, 6.792787 ], [ 0.56997, 6.801107 ], [ 0.575929, 6.798547 ], [ 0.576041, 6.803702 ], [ 0.57984, 6.807286 ], [ 0.569561, 6.809427 ], [ 0.56519, 6.825049 ], [ 0.561032, 6.824097 ], [ 0.548287, 6.833622 ], [ 0.544536, 6.830886 ], [ 0.546269, 6.827852 ], [ 0.539374, 6.825133 ], [ 0.532263, 6.828471 ], [ 0.534666, 6.834258 ], [ 0.531469, 6.833172 ], [ 0.531294, 6.856864 ], [ 0.542787, 6.861098 ], [ 0.543419, 6.864402 ], [ 0.535279, 6.876503 ], [ 0.55102, 6.880928 ], [ 0.558465, 6.887597 ], [ 0.566006, 6.921055 ], [ 0.559611, 6.929112 ], [ 0.55045, 6.927926 ], [ 0.54845, 6.936159 ], [ 0.54564, 6.93356 ], [ 0.526272, 6.94122 ], [ 0.521759, 6.947591 ], [ 0.526023, 6.954786 ], [ 0.522187, 6.960695 ], [ 0.525323, 6.963773 ], [ 0.52111, 6.968558 ], [ 0.522706, 6.973193 ], [ 0.533971, 6.976756 ], [ 0.541956, 6.98744 ], [ 0.549594, 6.991649 ], [ 0.570439, 6.996131 ], [ 0.577922, 6.99336 ], [ 0.589856, 6.99924 ], [ 0.59692, 7.006319 ], [ 0.592577, 7.01001 ], [ 0.604275, 7.024254 ], [ 0.60115, 7.031392 ], [ 0.604624, 7.03594 ], [ 0.597594, 7.062615 ], [ 0.614142, 7.090011 ], [ 0.614215, 7.095227 ], [ 0.610981, 7.097311 ], [ 0.614158, 7.099326 ], [ 0.611541, 7.105555 ], [ 0.602492, 7.107161 ], [ 0.596623, 7.114248 ], [ 0.591146, 7.111518 ], [ 0.59143, 7.113836 ], [ 0.596753, 7.133385 ], [ 0.603144, 7.13578 ], [ 0.605435, 7.141936 ], [ 0.604825, 7.15391 ], [ 0.609722, 7.153291 ], [ 0.615983, 7.157644 ], [ 0.61849, 7.17057 ], [ 0.614159, 7.174015 ], [ 0.616657, 7.181951 ], [ 0.624346, 7.182934 ], [ 0.633763, 7.206866 ], [ 0.643051, 7.253583 ], [ 0.64462, 7.289283 ], [ 0.647633, 7.294106 ], [ 0.651997, 7.292467 ], [ 0.650005, 7.304957 ], [ 0.658271, 7.317309 ], [ 0.648687, 7.356957 ], [ 0.641111, 7.371373 ], [ 0.643342, 7.376786 ], [ 0.649152, 7.379128 ], [ 0.643305, 7.391966 ], [ 0.644127, 7.40116 ], [ 0.633695, 7.403747 ], [ 0.629133, 7.399723 ], [ 0.62531, 7.410342 ], [ 0.61853, 7.412817 ], [ 0.602119, 7.404971 ], [ 0.598866, 7.400298 ], [ 0.568686, 7.392208 ], [ 0.553189, 7.405364 ], [ 0.543615, 7.421812 ], [ 0.538605, 7.422163 ], [ 0.535662, 7.426474 ], [ 0.538171, 7.431267 ], [ 0.531864, 7.443747 ], [ 0.534408, 7.447196 ], [ 0.530676, 7.448618 ], [ 0.534195, 7.450305 ], [ 0.532282, 7.457117 ], [ 0.525801, 7.458322 ], [ 0.52098, 7.454739 ], [ 0.522402, 7.458695 ], [ 0.519535, 7.460079 ], [ 0.523529, 7.463739 ], [ 0.520473, 7.472871 ], [ 0.530059, 7.480823 ], [ 0.526217, 7.482879 ], [ 0.529303, 7.486595 ], [ 0.523195, 7.493665 ], [ 0.523971, 7.502926 ], [ 0.521332, 7.51094 ], [ 0.518713, 7.511124 ], [ 0.52521, 7.581419 ], [ 0.524656, 7.588912 ], [ 0.51809, 7.592577 ], [ 0.528974, 7.59652 ], [ 0.543903, 7.608429 ], [ 0.553053, 7.606702 ], [ 0.560805, 7.613606 ], [ 0.586039, 7.622082 ], [ 0.583282, 7.670633 ], [ 0.590358, 7.7031123 ], [ 0.597536, 7.708373 ], [ 0.609167, 7.710892 ], [ 0.61927, 7.70329 ], [ 0.627113, 7.704283 ], [ 0.616225, 7.738648 ], [ 0.616958, 7.745428 ], [ 0.611434, 7.754866 ], [ 0.619026, 7.756898 ], [ 0.61909, 7.76437 ], [ 0.631076, 7.767771 ], [ 0.630072, 7.784386 ], [ 0.626795, 7.788642 ], [ 0.629615, 7.793153 ], [ 0.617196, 7.796369 ], [ 0.621987, 7.799292 ], [ 0.616976, 7.805768 ], [ 0.618505, 7.830114 ], [ 0.620003, 7.841485 ], [ 0.624213, 7.843457 ], [ 0.627468, 7.863519 ], [ 0.621684, 7.874517 ], [ 0.622299925613228, 7.894828549985576 ], [ 0.641139167274038, 7.896856220275875 ] ] ] } },
{ "type": "Feature", "properties": { "region": "Savanes", "superficie_km2": 8585.6, "ctr_lon": 0.45692211462559051, "ctr_lat": 10.589356492729433 }, "geometry": { "type": "Polygon", "coordinates": [ [ [ 0.91372712536325, 10.280310053860214 ], [ 0.90320354944515, 10.24492268122304 ], [ 0.8883386792699, 10.233307103927249 ], [ 0.885633113325931, 10.227491181390937 ], [ 0.88461343437731, 10.168576476418881 ], [ 0.867993810862096, 10.139288510494824 ], [ 0.857978293502656, 10.139459263291318 ], [ 0.825478865558996, 10.125435930655511 ], [ 0.745175546240326, 10.156943228404826 ], [ 0.71990748426242, 10.10106626035072 ], [ 0.686988550188688, 10.091787028538317 ], [ 0.696265103205394, 10.064006520361168 ], [ 0.678702417614581, 10.041064434450867 ], [ 0.685937681768597, 10.030590721072384 ], [ 0.701512231041296, 10.025757900477398 ], [ 0.7103026649814, 9.995796888766078 ], [ 0.683245705612687, 9.981647090065334 ], [ 0.649879372589959, 9.973958495309953 ], [ 0.649472994228301, 9.958962439044601 ], [ 0.665770900780641, 9.943463031703581 ], [ 0.641004311768129, 9.922802026617562 ], [ 0.647758871572579, 9.915465686140889 ], [ 0.648026894248922, 9.905102946781852 ], [ 0.62143848910887, 9.885243108493896 ], [ 0.600469296832347, 9.898088954948747 ], [ 0.593947186997305, 9.893298314363745 ], [ 0.557885209834417, 9.89494404138153 ], [ 0.552261956858531, 9.902998252339438 ], [ 0.529514182245661, 9.905394164894242 ], [ 0.515131771151449, 9.91200368828863 ], [ 0.528356138753624, 9.949416362418047 ], [ 0.492673821873033, 9.950352297931049 ], [ 0.479254684402221, 9.943299534039868 ], [ 0.445425491529211, 9.966796634717127 ], [ 0.445499497230515, 9.976146267736864 ], [ 0.424511328730025, 10.001153171107321 ], [ 0.4250254552134, 10.03155174382697 ], [ 0.41718206489085, 10.043565166350309 ], [ 0.41330959724817, 10.044213163556003 ], [ 0.4177473, 10.0576044 ], [ 0.4160052, 10.0624788 ], [ 0.3958541, 10.0809759 ], [ 0.3646555, 10.0855955 ], [ 0.3563274, 10.0910178 ], [ 0.3530763, 10.0986805 ], [ 0.3523933, 10.1111619 ], [ 0.3636017, 10.1379672 ], [ 0.3623292, 10.1472054 ], [ 0.3506759, 10.1683193 ], [ 0.3547669, 10.1828869 ], [ 0.3512426, 10.1924296 ], [ 0.3568507, 10.1975879 ], [ 0.3553805, 10.2117321 ], [ 0.3605147, 10.2190168 ], [ 0.3615908, 10.2581078 ], [ 0.3644573, 10.2645572 ], [ 0.3723297, 10.265674 ], [ 0.3817512, 10.2732111 ], [ 0.381983, 10.276936 ], [ 0.373019, 10.279985 ], [ 0.369517, 10.284839 ], [ 0.373277, 10.282712 ], [ 0.373192, 10.288387 ], [ 0.378149, 10.28632 ], [ 0.37877, 10.294614 ], [ 0.384691, 10.296807 ], [ 0.382731, 10.299074 ], [ 0.38837, 10.304018 ], [ 0.397303, 10.304534 ], [ 0.395816, 10.314269 ], [ 0.387855, 10.31558 ], [ 0.365773, 10.310746 ], [ 0.353309, 10.314248 ], [ 0.347815, 10.307637 ], [ 0.33631, 10.308323 ], [ 0.332073, 10.311486 ], [ 0.330526, 10.308247 ], [ 0.328885, 10.311724 ], [ 0.325059, 10.30683 ], [ 0.321268, 10.310123 ], [ 0.318671, 10.30864 ], [ 0.316134, 10.311155 ], [ 0.322023, 10.312677 ], [ 0.323024, 10.319501 ], [ 0.33837, 10.325151 ], [ 0.33264, 10.337403 ], [ 0.325378, 10.340454 ], [ 0.320639, 10.334092 ], [ 0.315591, 10.337967 ], [ 0.314475, 10.35958 ], [ 0.307491, 10.371501 ], [ 0.302375, 10.369475 ], [ 0.300788, 10.373168 ], [ 0.290316, 10.376406 ], [ 0.293335, 10.380422 ], [ 0.290406, 10.381846 ], [ 0.30079, 10.39177 ], [ 0.30042, 10.402501 ], [ 0.298203, 10.409881 ], [ 0.290147, 10.408986 ], [ 0.28595, 10.421586 ], [ 0.272723, 10.421028 ], [ 0.270297, 10.415553 ], [ 0.266437, 10.416074 ], [ 0.268474, 10.410213 ], [ 0.264008, 10.408852 ], [ 0.263693, 10.410979 ], [ 0.259261, 10.407587 ], [ 0.258364, 10.409907 ], [ 0.25095, 10.409245 ], [ 0.249433, 10.41372 ], [ 0.243825, 10.416008 ], [ 0.237685, 10.416186 ], [ 0.236562, 10.41248 ], [ 0.226351, 10.422359 ], [ 0.217467, 10.422733 ], [ 0.221175, 10.424884 ], [ 0.217696, 10.426923 ], [ 0.210301, 10.421577 ], [ 0.21202, 10.416859 ], [ 0.205131, 10.418255 ], [ 0.209414, 10.405477 ], [ 0.206565, 10.40444 ], [ 0.204823, 10.407621 ], [ 0.1940635, 10.4029412 ], [ 0.190356, 10.404317 ], [ 0.190932, 10.416738 ], [ 0.185324, 10.417135 ], [ 0.182008, 10.423721 ], [ 0.174846, 10.424491 ], [ 0.169105, 10.430335 ], [ 0.17115, 10.433654 ], [ 0.166658, 10.441512 ], [ 0.172872, 10.446321 ], [ 0.172629, 10.450651 ], [ 0.164024, 10.453872 ], [ 0.16168, 10.46056 ], [ 0.15426, 10.46508 ], [ 0.158871, 10.47518 ], [ 0.154139, 10.477714 ], [ 0.154809, 10.4846 ], [ 0.150623, 10.487182 ], [ 0.151202, 10.497285 ], [ 0.146972, 10.501233 ], [ 0.147326, 10.513568 ], [ 0.144137, 10.515129 ], [ 0.1426695, 10.5262702 ], [ 0.127629, 10.529747 ], [ 0.117222, 10.541419 ], [ 0.060996, 10.560818 ], [ 0.056124, 10.583512 ], [ 0.042873, 10.594405 ], [ 0.041287, 10.601442 ], [ -0.011815, 10.615744 ], [ -0.015695, 10.623597 ], [ -0.060523, 10.634395 ], [ -0.069839, 10.659269 ], [ -0.070389, 10.669951 ], [ -0.09009, 10.7115612 ], [ -0.085675, 10.7164 ], [ -0.072346, 10.720047 ], [ -0.074411, 10.730086 ], [ -0.070945, 10.741817 ], [ -0.074294, 10.757355 ], [ -0.069735, 10.76413 ], [ -0.072847, 10.769827 ], [ -0.064072, 10.772738 ], [ -0.056219, 10.786293 ], [ -0.04469, 10.792201 ], [ -0.044244, 10.798024 ], [ -0.038463, 10.804684 ], [ -0.030527, 10.807279 ], [ -0.029119, 10.814512 ], [ -0.021767, 10.818676 ], [ -0.0223489, 10.8316816 ], [ -0.0279073, 10.8421743 ], [ -0.0295014, 10.8544666 ], [ -0.0251416, 10.8657582 ], [ -0.025371, 10.8813609 ], [ -0.0177198, 10.8895717 ], [ -0.0121979, 10.9054201 ], [ -0.015077, 10.9063353 ], [ -0.007661, 10.9146888 ], [ -0.0118671, 10.9437544 ], [ -0.0070459, 10.9456402 ], [ -0.0061046, 10.9632369 ], [ 0.0054423, 10.9671131 ], [ 0.0097266, 10.9655898 ], [ 0.013125, 10.971281 ], [ 0.023508, 10.977401 ], [ 0.03325, 10.977966 ], [ 0.031245, 10.982687 ], [ 0.034392, 10.99268 ], [ 0.028572, 11.003962 ], [ 0.023905, 11.062604 ], [ 0.003217, 11.084025 ], [ 0.001826, 11.0942872 ], [ -0.0051837, 11.1008816 ], [ -0.0046512, 11.107812 ], [ -0.0194235, 11.1144797 ], [ -0.0461886, 11.1003376 ], [ -0.0547004, 11.0859518 ], [ -0.0949986, 11.0861133 ], [ -0.1030759, 11.090223 ], [ -0.1025015, 11.0937308 ], [ -0.1192316, 11.0993372 ], [ -0.1264046, 11.1060112 ], [ -0.1429994, 11.1058198 ], [ -0.143739, 11.1186226 ], [ -0.133809, 11.1298039 ], [ -0.136228, 11.139497 ], [ -0.0031489, 11.1113759 ], [ 0.0183608, 11.113509 ], [ 0.0314499, 11.1085557 ], [ 0.0395609, 11.1009076 ], [ 0.50285, 11.00908 ], [ 0.48997, 10.98623 ], [ 0.49372, 10.98234 ], [ 0.50584, 10.98011 ], [ 0.50634, 10.97321 ], [ 0.49468, 10.931 ], [ 0.589, 10.96975 ], [ 0.59506, 10.96956 ], [ 0.65631, 10.99736 ], [ 0.9122091, 10.9961705 ], [ 0.911944, 10.978611 ], [ 0.888611, 10.92 ], [ 0.904444, 10.876944 ], [ 0.888611, 10.860833 ], [ 0.879444, 10.799722 ], [ 0.809722, 10.727778 ], [ 0.8025, 10.714167 ], [ 0.800278, 10.681111 ], [ 0.8075, 10.607222 ], [ 0.806944, 10.579722 ], [ 0.800556, 10.551111 ], [ 0.785278, 10.524444 ], [ 0.776667, 10.376667 ], [ 0.91372712536325, 10.280310053860214 ] ] ] } }
]
}
